{"type":"Feature","properties":{"MUN":"RUMSON BORO","COUNTY":"MONMOUTH","MUN_LABEL":"Rumson Borough","MUN_TYPE":"Borough","NAME":"Rumson Borough","GNIS_NAME":"Borough of Rumson"},"geometry":{"type":"Polygon","coordinates":[[[-73.9776334,40.3828213],[-73.977468,40.3815949],[-73.9770587,40.3795682],[-73.9767139,40.3776666],[-73.9765464,40.37662],[-73.9763972,40.3753999],[-73.9763545,40.3750587],[-73.9763426,40.3750122],[-73.9762657,40.3741013],[-73.9762635,40.3740811],[-73.9761669,40.3731871],[-73.9757659,40.370936],[-73.9756172,40.3700993],[-73.9756055,40.3700338],[-73.9754549,40.3676112],[-73.9754597,40.3669929],[-73.9754885,40.3662212],[-73.9755312,40.3658749],[-73.9755746,40.3654368],[-73.9756757,40.3648563],[-73.9757695,40.3643572],[-73.975964,40.3637568],[-73.9761711,40.3632481],[-73.9764562,40.3625664],[-73.9767925,40.3615789],[-73.9769715,40.3610146],[-73.9770295,40.3604601],[-73.9770856,40.3600414],[-73.9771003,40.3599878],[-73.9770402,40.3594559],[-73.9768786,40.3588445],[-73.9767163,40.3583221],[-73.9766475,40.3575457],[-73.976653,40.3568332],[-73.9767061,40.3564136],[-73.9769265,40.3558802],[-73.9772459,40.3554363],[-73.9777652,40.3549552],[-73.9783668,40.3545762],[-73.9789004,40.3543878],[-73.9808598,40.3536969],[-73.982152,40.35327],[-73.9851981,40.3519032],[-73.9868305,40.3510342],[-73.9880603,40.3503174],[-73.9886714,40.3500041],[-73.9895953,40.3495303],[-73.9905639,40.3490102],[-73.9909203,40.3488758],[-73.9910699,40.3488135],[-73.9916589,40.3485683],[-73.9924998,40.3481446],[-73.9934676,40.3477216],[-73.9944358,40.3472596],[-73.9955052,40.3468176],[-73.9986892,40.3453747],[-73.9995305,40.3448927],[-73.9999496,40.3445545],[-74.0000015,40.3445056],[-74.000315,40.3442222],[-74.0014477,40.3431977],[-74.0027275,40.3420776],[-74.0042677,40.3407295],[-74.005471,40.3396022],[-74.0069614,40.3395605],[-74.0089095,40.3395688],[-74.0110497,40.339529],[-74.0131259,40.3395011],[-74.0138092,40.3394908],[-74.0172384,40.3394389],[-74.0184043,40.3394132],[-74.0188197,40.3393844],[-74.0194108,40.3393153],[-74.0207855,40.3391543],[-74.0222641,40.3389527],[-74.023319,40.3388104],[-74.0238464,40.3387515],[-74.0248287,40.3387189],[-74.0256401,40.3386754],[-74.0273821,40.3403748],[-74.0280935,40.3410688],[-74.028576,40.3415521],[-74.028941,40.3419015],[-74.0293678,40.3423274],[-74.0298441,40.342806],[-74.0298513,40.3428131],[-74.030438,40.3433946],[-74.0308277,40.3437822],[-74.0312237,40.3441699],[-74.0313844,40.3443373],[-74.0315698,40.3445573],[-74.0319145,40.3449819],[-74.0319774,40.3450594],[-74.0324284,40.3455998],[-74.0329349,40.3462214],[-74.0329789,40.3462753],[-74.0328141,40.3463634],[-74.0326078,40.3464698],[-74.0323874,40.3465832],[-74.0322328,40.3466541],[-74.0321016,40.3467108],[-74.031961,40.346771],[-74.0317869,40.3468324],[-74.0318804,40.3469232],[-74.032196,40.3472295],[-74.0325674,40.3475646],[-74.0330193,40.3479763],[-74.0332854,40.3482252],[-74.0336196,40.3485363],[-74.0340036,40.3488667],[-74.0340926,40.3489541],[-74.0343253,40.3491826],[-74.0346287,40.3494554],[-74.0347939,40.3496057],[-74.0350496,40.3498384],[-74.0351858,40.3499724],[-74.0355387,40.3502788],[-74.03617,40.3508771],[-74.0369127,40.3515855],[-74.0376754,40.3522601],[-74.0375434,40.3523017],[-74.0354347,40.3529663],[-74.0350649,40.3530829],[-74.032705,40.3538264],[-74.0304511,40.3545512],[-74.0301033,40.3546602],[-74.0285594,40.355144],[-74.0269111,40.3556663],[-74.0268166,40.3557098],[-74.0266236,40.3557986],[-74.0259233,40.3561674],[-74.0251291,40.3565931],[-74.024485,40.3569384],[-74.0241848,40.3570944],[-74.0240909,40.3571608],[-74.0240391,40.3572071],[-74.0238464,40.357379],[-74.0234576,40.3577396],[-74.0233259,40.3578678],[-74.0232962,40.3578919],[-74.023163,40.3580005],[-74.0229877,40.358119],[-74.0227125,40.3582751],[-74.0224497,40.3584218],[-74.021668,40.3588427],[-74.0209766,40.3592333],[-74.0206547,40.3594152],[-74.0201855,40.3596849],[-74.0197348,40.3599881],[-74.0192279,40.36031],[-74.0189821,40.3604639],[-74.0193922,40.360854],[-74.0199429,40.3613996],[-74.0203572,40.3618351],[-74.0208273,40.3623184],[-74.021687,40.3632084],[-74.0217758,40.3633024],[-74.022089,40.3636342],[-74.0222061,40.3637551],[-74.0234751,40.3650652],[-74.0236973,40.3652946],[-74.0237332,40.3653315],[-74.0242107,40.365821],[-74.0247091,40.3663339],[-74.0249592,40.3665914],[-74.0257397,40.367399],[-74.0258933,40.3675579],[-74.0260402,40.3677087],[-74.0268584,40.3685485],[-74.0272172,40.3689216],[-74.0272706,40.3689772],[-74.0330043,40.37494],[-74.0329003,40.3750124],[-74.0328166,40.3750517],[-74.0305309,40.3761255],[-74.0267034,40.3778295],[-74.0218775,40.3794771],[-74.0203722,40.3798657],[-74.0155635,40.3813046],[-74.0117984,40.3823057],[-74.0094029,40.3827442],[-74.0085043,40.3828818],[-74.0083742,40.3828901],[-74.0083704,40.3828903],[-74.0068052,40.3829901],[-74.0055589,40.3830822],[-74.0047108,40.3830786],[-73.9776334,40.3828213]]]}}
